start=new Date('2023-05-29T00:00:00.000Z').valueOf();
sats=[{"DECAY_DATE":null,"FILE":"3919546","SITE":"AFWTR","INCLINATION":"69.9994","EPOCH":"2023-05-28T20:32:58.377408","REF_FRAME":"TEME","RA_OF_ASC_NODE":"295.7246","OBJECT_TYPE":"PAYLOAD","NORAD_CAT_ID":"49156","SEMIMAJOR_AXIS":"6950.181","OBJECT_NAME":"STARLINK-3085","CENTER_NAME":"EARTH","COUNTRY_CODE":"US","MEAN_ANOMALY":"94.7457","ELEMENT_SET_NO":"999","ARG_OF_PERICENTER":"265.3340","ECCENTRICITY":"0.00031690","TLE_LINE2":"2 49156  69.9994 295.7246 0003169 265.3340  94.7457 14.98333846 95885","MEAN_MOTION":"14.98333846","OBJECT_ID":"2021-082AC","EPHEMERIS_TYPE":"0","TIME_SYSTEM":"UTC","MEAN_MOTION_DOT":"0.00000839","PERIAPSIS":"569.843","LAUNCH_DATE":"2021-09-14","TLE_LINE1":"1 49156U 21082AC  23148.85623122  .00000839  00000-0  78122-4 0  9999","APOAPSIS":"574.249","RCS_SIZE":"LARGE","CLASSIFICATION_TYPE":"U","PERIOD":"96.107","MEAN_MOTION_DDOT":"0.0000000000000","BSTAR":"0.00007812200000","GP_ID":"232705216","REV_AT_EPOCH":"9588","MEAN_ELEMENT_THEORY":"SGP4"},{"ARG_OF_PERICENTER":"270.1031","ELEMENT_SET_NO":"999","MEAN_ANOMALY":"89.9757","TIME_SYSTEM":"UTC","ECCENTRICITY":"0.00032330","EPHEMERIS_TYPE":"0","OBJECT_ID":"2021-082AD","TLE_LINE2":"2 49157  69.9987 315.6077 0003233 270.1031  89.9757 14.98333288 95413","MEAN_MOTION":"14.98333288","INCLINATION":"69.9987","EPOCH":"2023-05-28T21:39:24.237504","DECAY_DATE":null,"FILE":"3919546","SITE":"AFWTR","COUNTRY_CODE":"US","CENTER_NAME":"EARTH","OBJECT_NAME":"STARLINK-3051","SEMIMAJOR_AXIS":"6950.183","REF_FRAME":"TEME","NORAD_CAT_ID":"49157","OBJECT_TYPE":"PAYLOAD","RA_OF_ASC_NODE":"315.6077","MEAN_MOTION_DDOT":"0.0000000000000","PERIOD":"96.107","CLASSIFICATION_TYPE":"U","RCS_SIZE":"LARGE","REV_AT_EPOCH":"9541","GP_ID":"232705967","MEAN_ELEMENT_THEORY":"SGP4","BSTAR":"0.00004160200000","MEAN_MOTION_DOT":"0.00000403","TLE_LINE1":"1 49157U 21082AD  23148.90236386  .00000403  00000-0  41602-4 0  9998","APOAPSIS":"574.295","PERIAPSIS":"569.801","LAUNCH_DATE":"2021-09-14"},{"CLASSIFICATION_TYPE":"U","RCS_SIZE":"LARGE","MEAN_MOTION_DDOT":"0.0000000000000","PERIOD":"96.136","BSTAR":"0.00072277000000","MEAN_ELEMENT_THEORY":"SGP4","REV_AT_EPOCH":"9541","GP_ID":"232706218","MEAN_MOTION_DOT":"0.00008440","PERIAPSIS":"571.166","LAUNCH_DATE":"2021-09-14","APOAPSIS":"575.783","TLE_LINE1":"1 49158U 21082AE  23148.85320077  .00008440  00000-0  72277-3 0  9994","ELEMENT_SET_NO":"999","MEAN_ANOMALY":"92.1617","ARG_OF_PERICENTER":"267.9162","OBJECT_ID":"2021-082AE","EPHEMERIS_TYPE":"0","TLE_LINE2":"2 49158  69.9991 315.4458 0003321 267.9162  92.1617 14.97871978 95410","MEAN_MOTION":"14.97871978","ECCENTRICITY":"0.00033210","TIME_SYSTEM":"UTC","SITE":"AFWTR","DECAY_DATE":null,"FILE":"3919546","EPOCH":"2023-05-28T20:28:36.546528","INCLINATION":"69.9991","NORAD_CAT_ID":"49158","OBJECT_TYPE":"PAYLOAD","RA_OF_ASC_NODE":"315.4458","REF_FRAME":"TEME","CENTER_NAME":"EARTH","COUNTRY_CODE":"US","SEMIMAJOR_AXIS":"6951.610","OBJECT_NAME":"STARLINK-3083"},{"SITE":"AFWTR","FILE":"3919546","DECAY_DATE":null,"EPOCH":"2023-05-28T20:51:40.277088","INCLINATION":"69.9996","RA_OF_ASC_NODE":"335.7015","OBJECT_TYPE":"PAYLOAD","NORAD_CAT_ID":"49159","REF_FRAME":"TEME","SEMIMAJOR_AXIS":"6950.182","OBJECT_NAME":"STARLINK-3056","COUNTRY_CODE":"US","CENTER_NAME":"EARTH","MEAN_ANOMALY":"90.8561","ELEMENT_SET_NO":"999","ARG_OF_PERICENTER":"269.2243","TLE_LINE2":"2 49159  69.9996 335.7015 0003101 269.2243  90.8561 14.98333665 94915","MEAN_MOTION":"14.98333665","OBJECT_ID":"2021-082AF","EPHEMERIS_TYPE":"0","ECCENTRICITY":"0.00031010","TIME_SYSTEM":"UTC","MEAN_MOTION_DOT":"0.00000388","LAUNCH_DATE":"2021-09-14","PERIAPSIS":"569.891","APOAPSIS":"574.202","TLE_LINE1":"1 49159U 21082AF  23148.86921617  .00000388  00000-0  40309-4 0  9998","RCS_SIZE":"LARGE","CLASSIFICATION_TYPE":"U","PERIOD":"96.107","MEAN_MOTION_DDOT":"0.0000000000000","BSTAR":"0.00004030900000","MEAN_ELEMENT_THEORY":"SGP4","GP_ID":"232706969","REV_AT_EPOCH":"9491"},{"MEAN_MOTION_DOT":"0.00000132","LAUNCH_DATE":"2021-09-14","PERIAPSIS":"569.864","TLE_LINE1":"1 49160U 21082AG  23148.85669945  .00000132  00000-0  18859-4 0  9994","APOAPSIS":"574.240","RCS_SIZE":"LARGE","CLASSIFICATION_TYPE":"U","PERIOD":"96.107","MEAN_MOTION_DDOT":"0.0000000000000","BSTAR":"0.00001885900000","REV_AT_EPOCH":"9488","GP_ID":"232705717","MEAN_ELEMENT_THEORY":"SGP4","DECAY_DATE":null,"FILE":"3919546","SITE":"AFWTR","EPOCH":"2023-05-28T20:33:38.832480","INCLINATION":"69.9996","REF_FRAME":"TEME","OBJECT_TYPE":"PAYLOAD","RA_OF_ASC_NODE":"335.7153","NORAD_CAT_ID":"49160","SEMIMAJOR_AXIS":"6950.187","OBJECT_NAME":"STARLINK-3095","CENTER_NAME":"EARTH","COUNTRY_CODE":"US","MEAN_ANOMALY":"91.0761","ELEMENT_SET_NO":"999","ARG_OF_PERICENTER":"269.0038","ECCENTRICITY":"0.00031480","TLE_LINE2":"2 49160  69.9996 335.7153 0003148 269.0038  91.0761 14.98331862 94889","MEAN_MOTION":"14.98331862","EPHEMERIS_TYPE":"0","OBJECT_ID":"2021-082AG","TIME_SYSTEM":"UTC"},{"PERIOD":"96.107","MEAN_MOTION_DDOT":"0.0000000000000","RCS_SIZE":"LARGE","CLASSIFICATION_TYPE":"U","GP_ID":"232705467","REV_AT_EPOCH":"9489","MEAN_ELEMENT_THEORY":"SGP4","BSTAR":"0.00004801200000","MEAN_MOTION_DOT":"0.00000480","TLE_LINE1":"1 49161U 21082AH  23148.86087249  .00000480  00000-0  48012-4 0  9997","APOAPSIS":"574.267","LAUNCH_DATE":"2021-09-14","PERIAPSIS":"569.839","ARG_OF_PERICENTER":"269.3959","MEAN_ANOMALY":"90.6835","ELEMENT_SET_NO":"999","TIME_SYSTEM":"UTC","ECCENTRICITY":"0.00031860","MEAN_MOTION":"14.98331590","TLE_LINE2":"2 49161  69.9988 335.7023 0003186 269.3959  90.6835 14.98331590 94890","EPHEMERIS_TYPE":"0","OBJECT_ID":"2021-082AH","EPOCH":"2023-05-28T20:39:39.383136","INCLINATION":"69.9988","DECAY_DATE":null,"FILE":"3919546","SITE":"AFWTR","OBJECT_NAME":"STARLINK-3080","SEMIMAJOR_AXIS":"6950.188","COUNTRY_CODE":"US","CENTER_NAME":"EARTH","REF_FRAME":"TEME","RA_OF_ASC_NODE":"335.7023","OBJECT_TYPE":"PAYLOAD","NORAD_CAT_ID":"49161"},{"MEAN_ELEMENT_THEORY":"SGP4","GP_ID":"232706719","REV_AT_EPOCH":"9497","BSTAR":"0.00002219700000","MEAN_MOTION_DDOT":"0.0000000000000","PERIOD":"96.107","CLASSIFICATION_TYPE":"U","RCS_SIZE":"LARGE","APOAPSIS":"574.161","TLE_LINE1":"1 49162U 21082AJ  23148.85252480  .00000172  00000-0  22197-4 0  9992","PERIAPSIS":"569.909","LAUNCH_DATE":"2021-09-14","MEAN_MOTION_DOT":"0.00000172","TIME_SYSTEM":"UTC","OBJECT_ID":"2021-082AJ","EPHEMERIS_TYPE":"0","MEAN_MOTION":"14.98337307","TLE_LINE2":"2 49162  69.9988 335.7294 0003059 267.4212  92.6597 14.98337307 94979","ECCENTRICITY":"0.00030590","ARG_OF_PERICENTER":"267.4212","ELEMENT_SET_NO":"999","MEAN_ANOMALY":"92.6597","COUNTRY_CODE":"US","CENTER_NAME":"EARTH","OBJECT_NAME":"STARLINK-3082","SEMIMAJOR_AXIS":"6950.170","NORAD_CAT_ID":"49162","OBJECT_TYPE":"PAYLOAD","RA_OF_ASC_NODE":"335.7294","REF_FRAME":"TEME","INCLINATION":"69.9988","EPOCH":"2023-05-28T20:27:38.142720","SITE":"AFWTR","DECAY_DATE":null,"FILE":"3919546"},{"EPHEMERIS_TYPE":"0","OBJECT_ID":"2021-082AK","MEAN_MOTION":"14.98334287","TLE_LINE2":"2 49163  69.9997 315.6350 0003201 270.1918  89.8874 14.98334287 95479","ECCENTRICITY":"0.00032010","TIME_SYSTEM":"UTC","ELEMENT_SET_NO":"999","MEAN_ANOMALY":"89.8874","ARG_OF_PERICENTER":"270.1918","NORAD_CAT_ID":"49163","OBJECT_TYPE":"PAYLOAD","RA_OF_ASC_NODE":"315.6350","REF_FRAME":"TEME","COUNTRY_CODE":"US","CENTER_NAME":"EARTH","SEMIMAJOR_AXIS":"6950.180","OBJECT_NAME":"STARLINK-3088","SITE":"AFWTR","DECAY_DATE":null,"FILE":"3919546","EPOCH":"2023-05-28T21:27:23.209632","INCLINATION":"69.9997","BSTAR":"0.00007773600000","MEAN_ELEMENT_THEORY":"SGP4","GP_ID":"232706469","REV_AT_EPOCH":"9547","CLASSIFICATION_TYPE":"U","RCS_SIZE":"LARGE","MEAN_MOTION_DDOT":"0.0000000000000","PERIOD":"96.107","LAUNCH_DATE":"2021-09-14","PERIAPSIS":"569.820","APOAPSIS":"574.269","TLE_LINE1":"1 49163U 21082AK  23148.89401863  .00000835  00000-0  77736-4 0  9993","MEAN_MOTION_DOT":"0.00000835"},{"TIME_SYSTEM":"UTC","TLE_LINE2":"2 49164  69.9998 315.6658 0002941 261.0158  99.0668 14.98337236 95489","MEAN_MOTION":"14.98337236","EPHEMERIS_TYPE":"0","OBJECT_ID":"2021-082AL","ECCENTRICITY":"0.00029410","ARG_OF_PERICENTER":"261.0158","MEAN_ANOMALY":"99.0668","ELEMENT_SET_NO":"999","SEMIMAJOR_AXIS":"6950.171","OBJECT_NAME":"STARLINK-3106","COUNTRY_CODE":"US","CENTER_NAME":"EARTH","RA_OF_ASC_NODE":"315.6658","OBJECT_TYPE":"PAYLOAD","NORAD_CAT_ID":"49164","REF_FRAME":"TEME","EPOCH":"2023-05-28T21:15:22.012416","INCLINATION":"69.9998","SITE":"AFWTR","FILE":"3919546","DECAY_DATE":null,"MEAN_ELEMENT_THEORY":"SGP4","GP_ID":"232705217","REV_AT_EPOCH":"9548","BSTAR":"0.00005239600000","PERIOD":"96.107","MEAN_MOTION_DDOT":"0.0000000000000","RCS_SIZE":"LARGE","CLASSIFICATION_TYPE":"U","APOAPSIS":"574.080","TLE_LINE1":"1 49164U 21082AL  23148.88567144  .00000532  00000-0  52396-4 0  9997","PERIAPSIS":"569.991","LAUNCH_DATE":"2021-09-14","MEAN_MOTION_DOT":"0.00000532"},{"EPOCH":"2023-05-28T20:21:52.024320","INCLINATION":"69.9995","DECAY_DATE":null,"FILE":"3919345","SITE":"AFWTR","SEMIMAJOR_AXIS":"6950.185","OBJECT_NAME":"STARLINK-3052","COUNTRY_CODE":"US","CENTER_NAME":"EARTH","REF_FRAME":"TEME","OBJECT_TYPE":"PAYLOAD","RA_OF_ASC_NODE":"335.7438","NORAD_CAT_ID":"49165","ARG_OF_PERICENTER":"268.7034","MEAN_ANOMALY":"91.3784","ELEMENT_SET_NO":"999","TIME_SYSTEM":"UTC","ECCENTRICITY":"0.00029740","TLE_LINE2":"2 49165  69.9995 335.7438 0002974 268.7034  91.3784 14.98332485 95024","MEAN_MOTION":"14.98332485","EPHEMERIS_TYPE":"0","OBJECT_ID":"2021-082AM","MEAN_MOTION_DOT":"0.00000402","TLE_LINE1":"1 49165U 21082AM  23148.84851880  .00000402  00000-0  41494-4 0  9990","APOAPSIS":"574.117","PERIAPSIS":"569.983","LAUNCH_DATE":"2021-09-14","PERIOD":"96.107","MEAN_MOTION_DDOT":"0.0000000000000","RCS_SIZE":"LARGE","CLASSIFICATION_TYPE":"U","REV_AT_EPOCH":"9502","GP_ID":"232680000","MEAN_ELEMENT_THEORY":"SGP4","BSTAR":"0.00004149400000"}];
